NORAD_CAT_ID,OBJECT_NAME,OBJECT_TYPE,EPOCH,MEAN_MOTION,ECCENTRICITY,INCLINATION,RA_OF_ASC_NODE,ARG_OF_PERICENTER,MEAN_ANOMALY,BSTAR,MEAN_MOTION_DOT,MEAN_MOTION_DDOT,TLE_LINE0,TLE_LINE1,TLE_LINE2,SEMIMAJOR_AXIS,PERIOD,APOGEE,PERIGEE,DECAYED
52871.0,STARLINK-4207,PAYLOAD,2023-11-04 06:41:33,15.08850872,0.0001553,53.2167,258.6973,97.9225,262.1944,0.00020651,3.001e-05,0.0,0 STARLINK-4207,1 52871U 22062AT  23308.27885749  .00003001  00000-0  20651-3 0  9992,2 52871  53.2167 258.6973 0001553  97.9225 262.1944 15.08850872 76776,6917.847,95.437,540.786,538.638,0.0
52871.0,STARLINK-4207,PAYLOAD,2023-11-05 03:21:34,15.08845,0.000141,53.216,254.8321,90.7216,269.3937,0.00016892,2.402e-05,0.0,0 STARLINK-4207,1 52871U 22062AT  23309.13998158  .00002402  00000-0  16892-3 0  9993,2 52871  53.2160 254.8321 0001410  90.7216 269.3937 15.08845000 77394,6917.865,95.437,540.706,538.755,0.0
52871.0,STARLINK-4207,PAYLOAD,2023-11-05 20:50:48,15.08862717,0.0001423,53.2166,251.5617,88.3909,271.7246,0.00044954,6.878e-05,0.0,0 STARLINK-4207,1 52871U 22062AT  23309.86861198  .00006878  00000-0  44954-3 0  9997,2 52871  53.2166 251.5617 0001423  88.3909 271.7246 15.08862717 77011,6917.811,95.436,540.66,538.692,0.0
52871.0,STARLINK-4207,PAYLOAD,2023-11-06 03:12:19,15.08901709,0.0001313,53.2157,250.3742,94.1708,265.9434,0.0016237,0.00025691,0.0,0 STARLINK-4207,1 52871U 22062AT  23310.13356178  .00025691  00000-0  16237-2 0  9992,2 52871  53.2157 250.3742 0001313  94.1708 265.9434 15.08901709 77544,6917.692,95.434,540.465,538.648,0.0
52871.0,STARLINK-4207,PAYLOAD,2023-11-06 12:44:37,15.08891088,0.0001599,53.2168,248.5856,90.7555,269.362,0.00085867,0.00013423,0.0,0 STARLINK-4207,1 52871U 22062AT  23310.53098526  .00013423  00000-0  85867-3 0  9992,2 52871  53.2168 248.5856 0001599  90.7555 269.3620 15.08891088 77115,6917.724,95.434,540.695,538.483,0.0
52871.0,STARLINK-4207,PAYLOAD,2023-11-07 03:03:06,15.08808383,0.0001255,53.2167,245.9121,85.1657,274.9479,-0.0015637,-0.00025066,0.0,0 STARLINK-4207,1 52871U 22062AT  23311.12716359 -.00025066  00000-0 -15637-2 0  9994,2 52871  53.2167 245.9121 0001255  85.1657 274.9479 15.08808383 77693,6917.977,95.44,540.71,538.974,0.0
52871.0,STARLINK-4207,PAYLOAD,2023-11-07 12:35:26,15.08813121,0.0001406,53.2168,244.1287,98.0001,262.115,-0.00077719,-0.00012626,0.0,0 STARLINK-4207,1 52871U 22062AT  23311.52461260 -.00012626  00000-0 -77719-3 0  9994,2 52871  53.2168 244.1287 0001406  98.0001 262.1150 15.08813121 77266,6917.963,95.439,540.8,538.855,0.0
52871.0,STARLINK-4207,PAYLOAD,2023-11-08 02:53:54,15.08850155,0.0001369,53.2167,241.4508,91.8715,268.2434,0.00046627,7.143e-05,0.0,0 STARLINK-4207,1 52871U 22062AT  23312.12076507  .00007143  00000-0  46627-3 0  9997,2 52871  53.2167 241.4508 0001369  91.8715 268.2434 15.08850155 77846,6917.849,95.437,540.661,538.767,0.0
52871.0,STARLINK-4207,PAYLOAD,2023-11-08 06:04:40,15.08850642,0.000153,53.2165,240.8536,83.306,276.8106,0.00060328,9.329e-05,0.0,0 STARLINK-4207,1 52871U 22062AT  23312.25324652  .00009329  00000-0  60328-3 0  9990,2 52871  53.2165 240.8536 0001530  83.3060 276.8106 15.08850642 77377,6917.848,95.437,540.771,538.654,0.0
52871.0,STARLINK-4207,PAYLOAD,2023-11-09 02:44:42,15.08828561,0.0001339,53.2161,236.9905,85.1413,274.9732,0.00027495,4.089e-05,0.0,0 STARLINK-4207,1 52871U 22062AT  23313.11438363  .00004089  00000-0  27495-3 0  9997,2 52871  53.2161 236.9905 0001339  85.1413 274.9732 15.08828561 77995,6917.915,95.438,540.707,538.854,0.0
52871.0,STARLINK-4207,PAYLOAD,2023-11-09 04:20:05,15.08832899,0.0001285,53.216,236.6928,92.8985,267.2155,0.00032626,4.907e-05,0.0,0 STARLINK-4207,1 52871U 22062AT  23313.18062227  .00004907  00000-0  32626-3 0  9997,2 52871  53.2160 236.6928 0001285  92.8985 267.2155 15.08832899 77516,6917.902,95.438,540.656,538.878,0.0
52871.0,STARLINK-4207,PAYLOAD,2023-11-10 01:00:06,15.08835818,0.0001463,53.217,232.826,103.6628,256.4527,0.00025793,3.819e-05,0.0,0 STARLINK-4207,1 52871U 22062AT  23314.04174521  .00003819  00000-0  25793-3 0  9992,2 52871  53.2170 232.8260 0001463 103.6628 256.4527 15.08835818 77648,6917.893,95.438,540.77,538.746,0.0
52871.0,STARLINK-4207,PAYLOAD,2023-11-11 00:50:54,15.08837449,0.000157,53.217,228.3647,93.3017,266.8155,0.00027741,4.129e-05,0.0,0 STARLINK-4207,1 52871U 22062AT  23315.03535392  .00004129  00000-0  27741-3 0  9999,2 52871  53.2170 228.3647 0001570  93.3017 266.8155 15.08837449 78288,6917.888,95.438,540.839,538.667,0.0
52871.0,STARLINK-4207,PAYLOAD,2023-11-11 11:58:36,15.08842334,0.000152,53.2162,226.2846,89.0437,271.0729,0.00030048,4.498e-05,0.0,0 STARLINK-4207,1 52871U 22062AT  23315.49903364  .00004498  00000-0  30048-3 0  9990,2 52871  53.2162 226.2846 0001520  89.0437 271.0729 15.08842334 77867,6917.873,95.437,540.79,538.687,0.0
52871.0,STARLINK-4207,PAYLOAD,2023-11-11 21:30:55,15.08842274,0.0001678,53.2171,224.5017,94.302,265.8164,0.00015675,2.208e-05,0.0,0 STARLINK-4207,1 52871U 22062AT  23315.89647463  .00002208  00000-0  15675-3 0  9995,2 52871  53.2171 224.5017 0001678  94.3020 265.8164 15.08842274 77923,6917.873,95.437,540.899,538.578,0.0
52871.0,STARLINK-4207,PAYLOAD,2023-11-12 03:52:27,15.08846384,0.0001734,53.2178,223.3115,97.7901,262.3288,0.00024308,3.583e-05,0.0,0 STARLINK-4207,1 52871U 22062AT  23316.16143280  .00003583  00000-0  24308-3 0  9994,2 52871  53.2178 223.3115 0001734  97.7901 262.3288 15.08846384 78458,6917.861,95.437,540.925,538.526,0.0
52871.0,STARLINK-4207,PAYLOAD,2023-11-12 21:21:42,15.08847119,0.0001669,53.2173,220.0406,95.899,264.2192,2.4608e-05,1.04e-06,0.0,0 STARLINK-4207,1 52871U 22062AT  23316.89007140  .00000104  00000-0  24608-4 0  9998,2 52871  53.2173 220.0406 0001669  95.8990 264.2192 15.08847119 78074,6917.859,95.437,540.878,538.569,0.0
52871.0,STARLINK-4207,PAYLOAD,2023-11-13 10:04:47,15.08844213,0.0001615,53.2165,217.6585,96.5557,263.5619,0.00010692,1.414e-05,0.0,0 STARLINK-4207,1 52871U 22062AT  23317.41999166  .00001414  00000-0  10692-3 0  9997,2 52871  53.2165 217.6585 0001615  96.5557 263.5619 15.08844213 78644,6917.868,95.437,540.85,538.615,0.0
52871.0,STARLINK-4207,PAYLOAD,2023-11-14 03:34:02,15.08836052,0.0001609,53.217,214.388,99.645,260.4724,-7.2033e-05,-1.434e-05,0.0,0 STARLINK-4207,1 52871U 22062AT  23318.14863555 -.00001434  00000-0 -72033-4 0  9992,2 52871  53.2170 214.3880 0001609  99.6450 260.4724 15.08836052 78758,6917.892,95.438,540.871,538.644,0.0
52871.0,STARLINK-4207,PAYLOAD,2023-11-14 09:55:34,15.08842127,0.0001688,53.2184,213.2011,93.488,266.6305,7.8371e-05,9.6e-06,0.0,0 STARLINK-4207,1 52871U 22062AT  23318.41359474  .00000960  00000-0  78371-4 0  9994,2 52871  53.2184 213.2011 0001688  93.4880 266.6305 15.08842127 78307,6917.874,95.437,540.907,538.571,0.0
52871.0,STARLINK-4207,PAYLOAD,2023-11-14 19:27:53,15.08843234,0.0001638,53.2174,211.4179,109.3702,250.7468,2.5843e-05,1.23e-06,0.0,0 STARLINK-4207,1 52871U 22062AT  23318.81103483  .00000123  00000-0  25843-4 0  9992,2 52871  53.2174 211.4179 0001638 109.3702 250.7468 15.08843234 78366,6917.871,95.437,540.869,538.602,0.0
52871.0,STARLINK-4207,PAYLOAD,2023-11-15 01:49:25,15.08849315,0.000149,53.2159,210.2295,98.7415,261.3746,9.1159e-05,1.163e-05,0.0,0 STARLINK-4207,1 52871U 22062AT  23319.07598806  .00001163  00000-0  91159-4 0  9996,2 52871  53.2159 210.2295 0001490  98.7415 261.3746 15.08849315 78894,6917.852,95.437,540.748,538.686,0.0
52871.0,STARLINK-4207,PAYLOAD,2023-11-15 19:18:40,15.08841767,0.0001545,53.2155,206.9589,92.5461,267.5708,0.00010336,1.357e-05,0.0,0 STARLINK-4207,1 52871U 22062AT  23319.80463152  .00001357  00000-0  10336-3 0  9994,2 52871  53.2155 206.9589 0001545  92.5461 267.5708 15.08841767 78510,6917.875,95.437,540.809,538.671,0.0
52871.0,STARLINK-4207,PAYLOAD,2023-11-16 01:40:12,15.08850825,0.0001484,53.2153,205.7696,92.8661,267.2501,5.4248e-05,5.76e-06,0.0,0 STARLINK-4207,1 52871U 22062AT  23320.06958660  .00000576  00000-0  54248-4 0  9990,2 52871  53.2153 205.7696 0001484  92.8661 267.2501 15.08850825 79043,6917.847,95.437,540.739,538.686,0.0
52871.0,STARLINK-4207,PAYLOAD,2023-11-16 15:58:40,15.08837824,0.0001575,53.215,203.0933,100.9762,259.1408,1.1668e-06,-2.69e-06,0.0,0 STARLINK-4207,1 52871U 22062AT  23320.66575230 -.00000269  00000-0  11668-5 0  9994,2 52871  53.2150 203.0933 0001575 100.9762 259.1408 15.08837824 79139,6917.887,95.438,540.842,538.662,0.0
52871.0,STARLINK-4207,PAYLOAD,2023-11-16 22:20:13,15.08836014,0.0001799,53.2147,201.9035,91.9611,268.1587,-3.8277e-05,-8.97e-06,0.0,0 STARLINK-4207,1 52871U 22062AT  23320.93071511 -.00000897  00000-0 -38277-4 0  9999,2 52871  53.2147 201.9035 0001799  91.9611 268.1587 15.08836014 78682,6917.893,95.438,541.002,538.513,0.0
52871.0,STARLINK-4207,PAYLOAD,2023-11-16 23:55:36,15.08840975,0.000153,53.217,201.6056,95.1153,265.0014,3.8436e-06,-2.27e-06,0.0,0 STARLINK-4207,1 52871U 22062AT  23320.99695592 -.00000227  00000-0  38436-5 0  9990,2 52871  53.2170 201.6056 0001530  95.1153 265.0014 15.08840975 78691,6917.877,95.437,540.801,538.684,0.0
52871.0,STARLINK-4207,PAYLOAD,2023-11-17 15:49:28,15.0883666,0.0001447,53.2166,198.6332,90.4978,269.618,1.5636e-05,-3.9e-07,0.0,0 STARLINK-4207,1 52871U 22062AT  23321.65935973 -.00000039  00000-0  15636-4 0  9991,2 52871  53.2166 198.6332 0001447  90.4978 269.6180 15.08836660 78799,6917.891,95.438,540.757,538.755,0.0
52871.0,STARLINK-4207,PAYLOAD,2023-11-18 01:21:47,15.08838551,0.000152,53.2164,196.8489,88.5505,271.5661,8.3834e-06,-1.55e-06,0.0,0 STARLINK-4207,1 52871U 22062AT  23322.05679935 -.00000155  00000-0  83834-5 0  9994,2 52871  53.2164 196.8489 0001520  88.5505 271.5661 15.08838551 79345,6917.885,95.438,540.801,538.698,0.0
52871.0,STARLINK-4207,PAYLOAD,2023-11-18 09:18:43,15.08837581,0.0001503,53.2165,195.3623,90.7164,269.4,6.8532e-05,8.03e-06,0.0,0 STARLINK-4207,1 52871U 22062AT  23322.38799966  .00000803  00000-0  68532-4 0  9993,2 52871  53.2165 195.3623 0001503  90.7164 269.4000 15.08837581 78903,6917.888,95.438,540.793,538.713,0.0
